IDEFIX & ARIANE 42P R/B 
1 27422U 02021B   24007.45228535  .00000359  00000+0  15595-3 0  9993
2 27422  98.5134 308.5345 0012295   5.9284 354.2042 14.29914718130756
AQUA                    
1 27424U 02022A   24007.59450661  .00001172  00000+0  26120-3 0  9998
2 27424  98.3120 316.6226 0000557  80.0298 330.3056 14.58728193153113
CZ-4B R/B               
1 27432U 02024C   24007.58925198  .00000070  00000+0  59284-4 0  9994
2 27432  98.9996  48.9481 0051272 108.2008  10.8136 14.14271327117268
MIDORI II (ADEOS-II)    
1 27597U 02056A   24007.42047298  .00000384  00000+0  17223-3 0  9994
2 27597  98.6739 314.9663 0001674 112.9780 247.1577 14.28147166 97168
H-2A R/B                
1 27601U 02056E   24007.56020769  .00000506  00000+0  19566-3 0  9997
2 27601  98.2124 352.8332 0071703   4.5610 106.5076 14.32596306100649
CZ-4B R/B               
1 28059U 03049C   24007.49736632  .00000424  00000+0  11175-3 0  9990
2 28059  98.5890 325.5593 0050275 128.7101 231.8605 14.53487554 71454
CZ-2C R/B               
1 28222U 04012C   24007.55511407  .00009072  00000+0  39747-3 0  9994
2 28222  97.8084  13.9434 0035472 252.3072 107.4289 15.21683207 82488
SL-16 R/B               
1 28353U 04021B   24007.56263655  .00000319  00000+0  19129-3 0  9996
2 28353  71.0010  94.5522 0005001 186.2928 173.8132 14.14371294 10823
CZ-4B R/B               
1 28415U 04035C   24007.58848965  .00005220  00000+0  29028-3 0  9990
2 28415  97.4461  44.9435 0043758 221.7565 138.0324 15.13283471 59502
CZ-2C R/B               
1 28480U 04046B   24007.45808781  .00000395  00000+0  16434-3 0  9997
2 28480  98.1424 322.7199 0140609 338.1906  21.3326 14.26205203995538
ARIANE 5 R/B            
1 28499U 04049H   24007.38442670  .00000825  00000+0  10439-3 0  9990
2 28499  98.1598 141.9344 0089874  36.8748 323.8598 14.81941892 28300
CZ-2D R/B               
1 28738U 05024B   24007.54168149  .00008441  00000+0  37309-3 0  9991
2 28738  97.3604   9.0086 0009810   6.1327 354.0028 15.21910809 18040
SUZAKU (ASTRO-EII)      
1 28773U 05025A   24007.56023302  .00020218  00000+0  55320-3 0  9993
2 28773  31.3882 148.0446 0003442  60.7617 299.3379 15.36141666 22040
ALOS (DAICHI)           
1 28931U 06002A   24007.46109790  .00001362  00000+0  26311-3 0  9997
2 28931  98.0167 324.2887 0001008  43.4024 316.7258 14.64951026957298
H-2A R/B                
1 28932U 06002B   24007.46747014  .00003133  00000+0  24974-3 0  9996
2 28932  98.2223  90.2892 0079286  17.9116 342.4870 14.98699305975091
RESURS-DK 1             
1 29228U 06021A   24007.56136019  .00002580  00000+0  18298-3 0  9991
2 29228  69.9354 115.8968 0007641 269.3542  90.6745 15.06090745967974
GENESIS 1               
1 29252U 06029A   24007.36724157  .00011943  00000+0  38917-3 0  9993
2 29252  64.5189 349.5255 0004713 316.8150  43.2610 15.32161585965741
CZ-4B R/B               
1 29507U 06046C   24007.57564057  .00003961  00000+0  27171-3 0  9990
2 29507  97.6659  44.6098 0043164 106.9154 253.6811 15.05834971940385
CZ-2C R/B               
1 31114U 07010B   24007.37362719  .00000146  00000+0  86015-4 0  9993
2 31114  98.3054 153.1430 0060619  79.9036 280.8973 14.19687186867272
COSMO-SKYMED 1          
1 31598U 07023A   24007.58331986  .00000549  00000+0  75585-4 0  9995
2 31598  97.8853 193.1099 0001168  94.7508 265.3838 14.82142979897184
GENESIS 2               
1 31789U 07028A   24007.44463555  .00011332  00000+0  37626-3 0  9990
2 31789  64.4931  34.1849 0040924 235.5173 124.2088 15.30803467912612
COSMOS 2428             
1 31792U 07029A   24007.54630316  .00000369  00000+0  22483-3 0  9990
2 31792  70.9429  65.8801 0012277 271.7606  88.2108 14.12658552852215
SL-16 R/B               
1 31793U 07029B   24007.52241693 -.00000242  00000+0 -10098-3 0  9996
2 31793  70.9754  37.2760 0002231 266.8967 202.3610 14.14582322853332
KORONAS-FOTON           
1 33504U 09003A   24007.49481773  .00005436  00000+0  22683-3 0  9994
2 33504  82.4381   6.0390 0018636  89.9669 270.3703 15.23289243824388
CZ-2C R/B               
1 37731U 11030B   24007.51683285  .00001636  00000+0  23367-3 0  9996
2 37731  97.7422 337.5976 0058267  45.6506  68.2658 14.76850733672989
H-2A R/B                
1 38341U 12025E   24007.61342352  .00002762  00000+0  30565-3 0  9996
2 38341  98.4349 269.0713 0052450  12.9160 347.3384 14.87299161630167
CUSAT 2 & FALCON 9 R/B  
1 39271U 13055G   24007.15383683  .00033672 -70850-6  48850-3 0  9992
2 39271  80.9429 272.0438 0375205 122.3565 241.4563 15.02826045540892
SHIJIAN-16 (SJ-16)      
1 39358U 13057A   24007.59024198  .00000988  00000+0  11038-3 0  9995
2 39358  74.9720 239.9700 0019199 229.0970 130.8554 14.87999300553501
CZ-2C R/B               
1 39364U 13059B   24007.12205817  .00039851  00000+0  53016-3 0  9995
2 39364  97.0741  55.6283 0025332  66.9630 293.4294 15.57680792567763
SL-4 R/B                
1 39679U 14021B   24007.54617646  .00009871  00000+0  39736-3 0  9999
2 39679  51.6101 172.5214 0145491 147.3264 213.6814 15.16304056535215
ALOS-2                  
1 39766U 14029A   24007.53532588 -.00000015  00000+0  48443-5 0  9993
2 39766  97.9220 106.5057 0001428 102.9732 257.1639 14.79468108519742
SL-27 R/B               
1 40354U 14084B   24007.58309361  .00022156  00000+0  25309-3 0  9998
2 40354  74.7283 198.6567 0022800  92.5332 267.8502 15.61755244508819
YAOGAN-29               
1 41038U 15069A   24007.56398623  .00000610  00000+0  84881-4 0  9991
2 41038  98.0609  21.0068 0003086  63.2994 296.8534 14.81431841438532
ASTRO-H (HITOMI)        
1 41337U 16012A   24007.49677220  .00002714  00000+0  19327-3 0  9996
2 41337  31.0045  40.4733 0011126 326.2256  33.7671 15.02448988432679
HXMT (HUIYAN)           
1 42758U 17034A   24007.57204045  .00006864  00000+0  37310-3 0  9991
2 42758  43.0157  89.9294 0003512 253.2244 106.8218 15.14973435362326
CZ-2C R/B               
1 43521U 18054D   24007.51726318  .00008852  00000+0  34767-3 0  9991
2 43521  35.1518  55.4579 0063563 113.1952 247.5476 15.23085379306164
SAOCOM 1A               
1 43641U 18076A   24007.52418839  .00000599  00000+0  81853-4 0  9994
2 43641  97.8847 196.0725 0001579  90.6819 269.4575 14.82144013284020
H-2A R/B                
1 43682U 18084L   24007.13729496  .00004756  00000+0  27849-3 0  9992
2 43682  98.8709  68.5789 0047703 187.8952 172.1528 15.11485864284991
SAOCOM 1B               
1 46265U 20059A   24007.55543402  .00000652  00000+0  88476-4 0  9999
2 46265  97.8852 195.1889 0001311  88.8638 271.2726 14.82159896181417
CSS (TIANHE)            
1 48274U 21035A   24007.37593640  .00021950  00000+0  24428-3 0  9995
2 48274  41.4696 351.5970 0004384  51.4999  84.0597 15.62324511153768
COSMOS 2550             
1 48865U 21056A   24007.57138908  .00007466  00000+0  23243-3 0  9998
2 48865  67.1432 277.2532 0008373 269.1783  90.8412 15.33842318141986
2022-019U               
1 51842U 22019U   24007.56364901  .00037049  00000+0  68696-3 0  9991
2 51842  97.5190 105.1553 0040246 328.8191  31.0671 15.47968664103920
CZ-2C R/B               
1 52794U 22058K   24007.13166672  .00006210  00000+0  27954-3 0  9997
2 52794  50.1731 313.8040 0087654 197.5985 162.1928 15.18984865 88458
CZ-2C R/B               
1 53131U 22082D   24007.59606863  .00060816  00000+0  54564-3 0  9990
2 53131  97.3292  33.6202 0022061 194.9277 165.1335 15.67787193 83585
XRISM                   
1 57800U 23137A   24007.27385990  .00004401  00000+0  34660-3 0  9992
2 57800  31.0051 321.5676 0009669  43.7580 316.3820 14.99151291 18272
